ONEWEB-0570             
1 55149U 23004K   23287.25001157 -.00907524  00000+0 -59650+0 0  9998
2 55149  87.1612 172.0628 0002882  53.2919 125.6168 14.04934705 40736
ONEWEB-0571             
1 55150U 23004L   23287.25001157 -.00871685  00000+0 -56360+0 0  9993
2 55150  87.1489 172.0971 0003207  41.1611  40.9585 14.06236580 40749
ONEWEB-0572             
1 55151U 23004M   23286.84045176  .00000059  00000+0  12000-3 0  9991
2 55151  87.9260 200.0915 0001455  87.7483 272.3815 13.17651681 38772
ONEWEB-0573             
1 55152U 23004N   23287.25001157 -.00882954  00000+0 -57147+0 0  9990
2 55152  87.1595 172.1048 0003849  33.5770  23.2673 14.05708068 40733
ONEWEB-0588             
1 55153U 23004P   23287.58335648 -.00768853  00000+0 -50374+0 0  9998
2 55153  87.1438 172.0091 0005930  23.7678 164.4368 14.05095893 40776
ONEWEB-0598             
1 55154U 23004Q   23286.87397960  .00000549  00000+0  15121-2 0  9998
2 55154  87.8980 215.2501 0001441  48.1495 311.9755 13.11419073 37808
ONEWEB-0599             
1 55155U 23004R   23287.18217021 -.00000536  00000+0 -14150-2 0  9992
2 55155  87.9257 199.9983 0001981  69.8206 290.3138 13.17647913 38828
ONEWEB-0614             
1 55156U 23004S   23287.17427004 -.00000218  00000+0 -65008-3 0  9992
2 55156  87.9007 215.1734 0002039  87.1321 273.0040 13.11417986 37809
